{
"type": "FeatureCollection",
"name": "villes_geo",
"crs": { "type": "name", "properties": { "name": "urn:ogc:def:crs:OGC:1.3:CRS84" } },
"features": [
{ "type": "Feature", "properties": { "ville": "Paris", "region": "Île-de-France" }, "geometry": { "type": "Point", "coordinates": [ 2.3522, 48.8566 ] } },
{ "type": "Feature", "properties": { "ville": "Marseille", "region": "Provence-Alpes-Côte d'Azur" }, "geometry": { "type": "Point", "coordinates": [ 5.3698, 43.2965 ] } },
{ "type": "Feature", "properties": { "ville": "Lyon", "region": "Auvergne-Rhône-Alpes" }, "geometry": { "type": "Point", "coordinates": [ 4.8357, 45.764 ] } },
{ "type": "Feature", "properties": { "ville": "Toulouse", "region": "Occitanie" }, "geometry": { "type": "Point", "coordinates": [ 1.4442, 43.6047 ] } },
{ "type": "Feature", "properties": { "ville": "Nice", "region": "Provence-Alpes-Côte d'Azur" }, "geometry": { "type": "Point", "coordinates": [ 7.262, 43.7102 ] } },
{ "type": "Feature", "properties": { "ville": "Nantes", "region": "Pays de la Loire" }, "geometry": { "type": "Point", "coordinates": [ -1.5536, 47.2184 ] } },
{ "type": "Feature", "properties": { "ville": "Montpellier", "region": "Occitanie" }, "geometry": { "type": "Point", "coordinates": [ 3.8767, 43.6108 ] } },
{ "type": "Feature", "properties": { "ville": "Strasbourg", "region": "Grand Est" }, "geometry": { "type": "Point", "coordinates": [ 7.7521, 48.5734 ] } },
{ "type": "Feature", "properties": { "ville": "Bordeaux", "region": "Nouvelle-Aquitaine" }, "geometry": { "type": "Point", "coordinates": [ -0.5792, 44.8378 ] } },
{ "type": "Feature", "properties": { "ville": "Lille", "region": "Hauts-de-France" }, "geometry": { "type": "Point", "coordinates": [ 3.0573, 50.6292 ] } },
{ "type": "Feature", "properties": { "ville": "Rennes", "region": "Bretagne" }, "geometry": { "type": "Point", "coordinates": [ -1.6778, 48.1173 ] } },
{ "type": "Feature", "properties": { "ville": "Reims", "region": "Grand Est" }, "geometry": { "type": "Point", "coordinates": [ 4.0317, 49.2583 ] } },
{ "type": "Feature", "properties": { "ville": "Le Havre", "region": "Normandie" }, "geometry": { "type": "Point", "coordinates": [ 0.1079, 49.4944 ] } },
{ "type": "Feature", "properties": { "ville": "Saint-Étienne", "region": "Auvergne-Rhône-Alpes" }, "geometry": { "type": "Point", "coordinates": [ 4.3872, 45.4397 ] } },
{ "type": "Feature", "properties": { "ville": "Toulon", "region": "Provence-Alpes-Côte d'Azur" }, "geometry": { "type": "Point", "coordinates": [ 5.928, 43.1242 ] } },
{ "type": "Feature", "properties": { "ville": "Grenoble", "region": "Auvergne-Rhône-Alpes" }, "geometry": { "type": "Point", "coordinates": [ 5.7245, 45.1885 ] } },
{ "type": "Feature", "properties": { "ville": "Dijon", "region": "Bourgogne-Franche-Comté" }, "geometry": { "type": "Point", "coordinates": [ 5.0415, 47.322 ] } },
{ "type": "Feature", "properties": { "ville": "Angers", "region": "Pays de la Loire" }, "geometry": { "type": "Point", "coordinates": [ -0.5632, 47.4784 ] } },
{ "type": "Feature", "properties": { "ville": "Nîmes", "region": "Occitanie" }, "geometry": { "type": "Point", "coordinates": [ 4.3601, 43.8367 ] } },
{ "type": "Feature", "properties": { "ville": "Villeurbanne", "region": "Auvergne-Rhône-Alpes" }, "geometry": { "type": "Point", "coordinates": [ 4.8794, 45.7667 ] } },
{ "type": "Feature", "properties": { "ville": "Clermont-Ferrand", "region": "Auvergne-Rhône-Alpes" }, "geometry": { "type": "Point", "coordinates": [ 3.087, 45.7772 ] } },
{ "type": "Feature", "properties": { "ville": "Le Mans", "region": "Pays de la Loire" }, "geometry": { "type": "Point", "coordinates": [ 0.1996, 48.0061 ] } },
{ "type": "Feature", "properties": { "ville": "Aix-en-Provence", "region": "Provence-Alpes-Côte d'Azur" }, "geometry": { "type": "Point", "coordinates": [ 5.4474, 43.5297 ] } },
{ "type": "Feature", "properties": { "ville": "Brest", "region": "Bretagne" }, "geometry": { "type": "Point", "coordinates": [ -4.4861, 48.3904 ] } },
{ "type": "Feature", "properties": { "ville": "Tours", "region": "Centre-Val de Loire" }, "geometry": { "type": "Point", "coordinates": [ 0.6848, 47.3941 ] } },
{ "type": "Feature", "properties": { "ville": "Amiens", "region": "Hauts-de-France" }, "geometry": { "type": "Point", "coordinates": [ 2.2957, 49.8941 ] } },
{ "type": "Feature", "properties": { "ville": "Limoges", "region": "Nouvelle-Aquitaine" }, "geometry": { "type": "Point", "coordinates": [ 1.2611, 45.8336 ] } },
{ "type": "Feature", "properties": { "ville": "Annecy", "region": "Auvergne-Rhône-Alpes" }, "geometry": { "type": "Point", "coordinates": [ 6.1294, 45.8992 ] } },
{ "type": "Feature", "properties": { "ville": "Perpignan", "region": "Occitanie" }, "geometry": { "type": "Point", "coordinates": [ 2.8948, 42.6887 ] } },
{ "type": "Feature", "properties": { "ville": "Metz", "region": "Grand Est" }, "geometry": { "type": "Point", "coordinates": [ 6.1757, 49.1193 ] } },
{ "type": "Feature", "properties": { "ville": "Orléans", "region": "Centre-Val de Loire" }, "geometry": { "type": "Point", "coordinates": [ 1.9093, 47.9029 ] } },
{ "type": "Feature", "properties": { "ville": "Mulhouse", "region": "Grand Est" }, "geometry": { "type": "Point", "coordinates": [ 7.3359, 47.7508 ] } },
{ "type": "Feature", "properties": { "ville": "Caen", "region": "Normandie" }, "geometry": { "type": "Point", "coordinates": [ -0.3707, 49.1829 ] } },
{ "type": "Feature", "properties": { "ville": "Nancy", "region": "Grand Est" }, "geometry": { "type": "Point", "coordinates": [ 6.1844, 48.6921 ] } },
{ "type": "Feature", "properties": { "ville": "Tourcoing", "region": "Hauts-de-France" }, "geometry": { "type": "Point", "coordinates": [ 3.1612, 50.7236 ] } },
{ "type": "Feature", "properties": { "ville": "Roubaix", "region": "Hauts-de-France" }, "geometry": { "type": "Point", "coordinates": [ 3.1746, 50.6927 ] } },
{ "type": "Feature", "properties": { "ville": "Avignon", "region": "Provence-Alpes-Côte d'Azur" }, "geometry": { "type": "Point", "coordinates": [ 4.8055, 43.9493 ] } },
{ "type": "Feature", "properties": { "ville": "Créteil", "region": "Ile-de-France" }, "geometry": { "type": "Point", "coordinates": [ 2.4556, 48.7904 ] } },
{ "type": "Feature", "properties": { "ville": "Poitiers", "region": "Nouvelle-Aquitaine" }, "geometry": { "type": "Point", "coordinates": [ 0.3404, 46.5802 ] } },
{ "type": "Feature", "properties": { "ville": "Versailles", "region": "Île-de-France" }, "geometry": { "type": "Point", "coordinates": [ 2.1301, 48.8014 ] } },
{ "type": "Feature", "properties": { "ville": "Béziers", "region": "Occitanie" }, "geometry": { "type": "Point", "coordinates": [ 3.2158, 43.3444 ] } },
{ "type": "Feature", "properties": { "ville": "Cherbourg-en-Cotentin", "region": "Normandie" }, "geometry": { "type": "Point", "coordinates": [ -1.6222, 49.6337 ] } },
{ "type": "Feature", "properties": { "ville": "Pau", "region": "Nouvelle-Aquitaine" }, "geometry": { "type": "Point", "coordinates": [ -0.3708, 43.2951 ] } },
{ "type": "Feature", "properties": { "ville": "La Rochelle", "region": "Nouvelle-Aquitaine" }, "geometry": { "type": "Point", "coordinates": [ -1.1511, 46.1603 ] } },
{ "type": "Feature", "properties": { "ville": "Colmar", "region": "Grand Est" }, "geometry": { "type": "Point", "coordinates": [ 7.3585, 48.0794 ] } },
{ "type": "Feature", "properties": { "ville": "Valence", "region": "Auvergne-Rhône-Alpes" }, "geometry": { "type": "Point", "coordinates": [ 4.8924, 44.9334 ] } },
{ "type": "Feature", "properties": { "ville": "Quimper", "region": "Bretagne" }, "geometry": { "type": "Point", "coordinates": [ -4.0972, 47.996 ] } },
{ "type": "Feature", "properties": { "ville": "Troyes", "region": "Grand Est" }, "geometry": { "type": "Point", "coordinates": [ 4.0744, 48.2973 ] } },
{ "type": "Feature", "properties": { "ville": "Chambéry", "region": "Auvergne-Rhône-Alpes" }, "geometry": { "type": "Point", "coordinates": [ 5.9178, 45.5646 ] } },
{ "type": "Feature", "properties": { "ville": "Niort", "region": "Nouvelle-Aquitaine" }, "geometry": { "type": "Point", "coordinates": [ -0.4583, 46.3237 ] } },
{ "type": "Feature", "properties": { "ville": "Vannes", "region": "Bretagne" }, "geometry": { "type": "Point", "coordinates": [ -2.7608, 47.6582 ] } },
{ "type": "Feature", "properties": { "ville": "Bayonne", "region": "Nouvelle-Aquitaine" }, "geometry": { "type": "Point", "coordinates": [ -1.4748, 43.4929 ] } },
{ "type": "Feature", "properties": { "ville": "Laval", "region": "Pays de la Loire" }, "geometry": { "type": "Point", "coordinates": [ -0.77, 48.0698 ] } },
{ "type": "Feature", "properties": { "ville": "Albi", "region": "Occitanie" }, "geometry": { "type": "Point", "coordinates": [ 2.148, 43.9298 ] } },
{ "type": "Feature", "properties": { "ville": "Belfort", "region": "Bourgogne-Franche-Comté" }, "geometry": { "type": "Point", "coordinates": [ 6.8629, 47.6379 ] } },
{ "type": "Feature", "properties": { "ville": "Charleville-Mézières", "region": "Grand Est" }, "geometry": { "type": "Point", "coordinates": [ 4.7199, 49.7716 ] } },
{ "type": "Feature", "properties": { "ville": "Châteauroux", "region": "Centre-Val de Loire" }, "geometry": { "type": "Point", "coordinates": [ 1.6911, 46.8107 ] } },
{ "type": "Feature", "properties": { "ville": "Agen", "region": "Nouvelle-Aquitaine" }, "geometry": { "type": "Point", "coordinates": [ 0.6212, 44.2049 ] } },
{ "type": "Feature", "properties": { "ville": "Auxerre", "region": "Bourgogne-Franche-Comté" }, "geometry": { "type": "Point", "coordinates": [ 3.5728, 47.7982 ] } },
{ "type": "Feature", "properties": { "ville": "Épinal", "region": "Grand Est" }, "geometry": { "type": "Point", "coordinates": [ 6.45, 48.1735 ] } }
]
}
