{
"type": "FeatureCollection",
"name": "villes_france",
"crs": { "type": "name", "properties": { "name": "urn:ogc:def:crs:OGC:1.3:CRS84" } },
"features": [
{ "type": "Feature", "properties": { "ville": "Paris", "region": "Île-de-France", "latitude": 48.8566, "longitude": 2.3522, "population": 2145000, "categorie": "grande", "superficie_km2": 12011 }, "geometry": { "type": "Point", "coordinates": [ 2.3522, 48.8566 ] } },
{ "type": "Feature", "properties": { "ville": "Marseille", "region": "Provence-Alpes-Côte d'Azur", "latitude": 43.2965, "longitude": 5.3698, "population": 870000, "categorie": "grande", "superficie_km2": 31400 }, "geometry": { "type": "Point", "coordinates": [ 5.3698, 43.2965 ] } },
{ "type": "Feature", "properties": { "ville": "Lyon", "region": "Auvergne-Rhône-Alpes", "latitude": 45.764, "longitude": 4.8357, "population": 522000, "categorie": "grande", "superficie_km2": 69711 }, "geometry": { "type": "Point", "coordinates": [ 4.8357, 45.764 ] } },
{ "type": "Feature", "properties": { "ville": "Toulouse", "region": "Occitanie", "latitude": 43.6047, "longitude": 1.4442, "population": 493000, "categorie": "moyenne", "superficie_km2": 72724 }, "geometry": { "type": "Point", "coordinates": [ 1.4442, 43.6047 ] } },
{ "type": "Feature", "properties": { "ville": "Nice", "region": "Provence-Alpes-Côte d'Azur", "latitude": 43.7102, "longitude": 7.262, "population": 342000, "categorie": "moyenne", "superficie_km2": 31400 }, "geometry": { "type": "Point", "coordinates": [ 7.262, 43.7102 ] } },
{ "type": "Feature", "properties": { "ville": "Nantes", "region": "Pays de la Loire", "latitude": 47.2184, "longitude": -1.5536, "population": 314000, "categorie": "moyenne", "superficie_km2": 32082 }, "geometry": { "type": "Point", "coordinates": [ -1.5536, 47.2184 ] } },
{ "type": "Feature", "properties": { "ville": "Montpellier", "region": "Occitanie", "latitude": 43.6108, "longitude": 3.8767, "population": 295000, "categorie": "moyenne", "superficie_km2": 72724 }, "geometry": { "type": "Point", "coordinates": [ 3.8767, 43.6108 ] } },
{ "type": "Feature", "properties": { "ville": "Strasbourg", "region": "Grand Est", "latitude": 48.5734, "longitude": 7.7521, "population": 291000, "categorie": "moyenne", "superficie_km2": 57433 }, "geometry": { "type": "Point", "coordinates": [ 7.7521, 48.5734 ] } },
{ "type": "Feature", "properties": { "ville": "Bordeaux", "region": "Nouvelle-Aquitaine", "latitude": 44.8378, "longitude": -0.5792, "population": 260000, "categorie": "moyenne", "superficie_km2": 84061 }, "geometry": { "type": "Point", "coordinates": [ -0.5792, 44.8378 ] } },
{ "type": "Feature", "properties": { "ville": "Lille", "region": "Hauts-de-France", "latitude": 50.6292, "longitude": 3.0573, "population": 233000, "categorie": "moyenne", "superficie_km2": 31813 }, "geometry": { "type": "Point", "coordinates": [ 3.0573, 50.6292 ] } },
{ "type": "Feature", "properties": { "ville": "Rennes", "region": "Bretagne", "latitude": 48.1173, "longitude": -1.6778, "population": 220000, "categorie": "moyenne", "superficie_km2": 27208 }, "geometry": { "type": "Point", "coordinates": [ -1.6778, 48.1173 ] } },
{ "type": "Feature", "properties": { "ville": "Reims", "region": "Grand Est", "latitude": 49.2583, "longitude": 4.0317, "population": 182000, "categorie": "moyenne", "superficie_km2": 57433 }, "geometry": { "type": "Point", "coordinates": [ 4.0317, 49.2583 ] } },
{ "type": "Feature", "properties": { "ville": "Le Havre", "region": "Normandie", "latitude": 49.4944, "longitude": 0.1079, "population": 170000, "categorie": "moyenne", "superficie_km2": 29907 }, "geometry": { "type": "Point", "coordinates": [ 0.1079, 49.4944 ] } },
{ "type": "Feature", "properties": { "ville": "Saint-Étienne", "region": "Auvergne-Rhône-Alpes", "latitude": 45.4397, "longitude": 4.3872, "population": 172000, "categorie": "moyenne", "superficie_km2": 69711 }, "geometry": { "type": "Point", "coordinates": [ 4.3872, 45.4397 ] } },
{ "type": "Feature", "properties": { "ville": "Toulon", "region": "Provence-Alpes-Côte d'Azur", "latitude": 43.1242, "longitude": 5.928, "population": 171000, "categorie": "moyenne", "superficie_km2": 31400 }, "geometry": { "type": "Point", "coordinates": [ 5.928, 43.1242 ] } },
{ "type": "Feature", "properties": { "ville": "Grenoble", "region": "Auvergne-Rhône-Alpes", "latitude": 45.1885, "longitude": 5.7245, "population": 158000, "categorie": "moyenne", "superficie_km2": 69711 }, "geometry": { "type": "Point", "coordinates": [ 5.7245, 45.1885 ] } },
{ "type": "Feature", "properties": { "ville": "Dijon", "region": "Bourgogne-Franche-Comté", "latitude": 47.322, "longitude": 5.0415, "population": 156000, "categorie": "moyenne", "superficie_km2": 47784 }, "geometry": { "type": "Point", "coordinates": [ 5.0415, 47.322 ] } },
{ "type": "Feature", "properties": { "ville": "Angers", "region": "Pays de la Loire", "latitude": 47.4784, "longitude": -0.5632, "population": 152000, "categorie": "moyenne", "superficie_km2": 32082 }, "geometry": { "type": "Point", "coordinates": [ -0.5632, 47.4784 ] } },
{ "type": "Feature", "properties": { "ville": "Nîmes", "region": "Occitanie", "latitude": 43.8367, "longitude": 4.3601, "population": 150000, "categorie": "petite", "superficie_km2": 72724 }, "geometry": { "type": "Point", "coordinates": [ 4.3601, 43.8367 ] } },
{ "type": "Feature", "properties": { "ville": "Villeurbanne", "region": "Auvergne-Rhône-Alpes", "latitude": 45.7667, "longitude": 4.8794, "population": 149000, "categorie": "petite", "superficie_km2": 69711 }, "geometry": { "type": "Point", "coordinates": [ 4.8794, 45.7667 ] } },
{ "type": "Feature", "properties": { "ville": "Clermont-Ferrand", "region": "Auvergne-Rhône-Alpes", "latitude": 45.7772, "longitude": 3.087, "population": 147000, "categorie": "petite", "superficie_km2": 69711 }, "geometry": { "type": "Point", "coordinates": [ 3.087, 45.7772 ] } },
{ "type": "Feature", "properties": { "ville": "Le Mans", "region": "Pays de la Loire", "latitude": 48.0061, "longitude": 0.1996, "population": 143000, "categorie": "petite", "superficie_km2": 32082 }, "geometry": { "type": "Point", "coordinates": [ 0.1996, 48.0061 ] } },
{ "type": "Feature", "properties": { "ville": "Aix-en-Provence", "region": "Provence-Alpes-Côte d'Azur", "latitude": 43.5297, "longitude": 5.4474, "population": 143000, "categorie": "petite", "superficie_km2": 31400 }, "geometry": { "type": "Point", "coordinates": [ 5.4474, 43.5297 ] } },
{ "type": "Feature", "properties": { "ville": "Brest", "region": "Bretagne", "latitude": 48.3904, "longitude": -4.4861, "population": 139000, "categorie": "petite", "superficie_km2": 27208 }, "geometry": { "type": "Point", "coordinates": [ -4.4861, 48.3904 ] } },
{ "type": "Feature", "properties": { "ville": "Tours", "region": "Centre-Val de Loire", "latitude": 47.3941, "longitude": 0.6848, "population": 136000, "categorie": "petite", "superficie_km2": 39151 }, "geometry": { "type": "Point", "coordinates": [ 0.6848, 47.3941 ] } },
{ "type": "Feature", "properties": { "ville": "Amiens", "region": "Hauts-de-France", "latitude": 49.8941, "longitude": 2.2957, "population": 133000, "categorie": "petite", "superficie_km2": 31813 }, "geometry": { "type": "Point", "coordinates": [ 2.2957, 49.8941 ] } },
{ "type": "Feature", "properties": { "ville": "Limoges", "region": "Nouvelle-Aquitaine", "latitude": 45.8336, "longitude": 1.2611, "population": 131000, "categorie": "petite", "superficie_km2": 84061 }, "geometry": { "type": "Point", "coordinates": [ 1.2611, 45.8336 ] } },
{ "type": "Feature", "properties": { "ville": "Annecy", "region": "Auvergne-Rhône-Alpes", "latitude": 45.8992, "longitude": 6.1294, "population": 128000, "categorie": "petite", "superficie_km2": 69711 }, "geometry": { "type": "Point", "coordinates": [ 6.1294, 45.8992 ] } },
{ "type": "Feature", "properties": { "ville": "Perpignan", "region": "Occitanie", "latitude": 42.6887, "longitude": 2.8948, "population": 119000, "categorie": "petite", "superficie_km2": 72724 }, "geometry": { "type": "Point", "coordinates": [ 2.8948, 42.6887 ] } },
{ "type": "Feature", "properties": { "ville": "Metz", "region": "Grand Est", "latitude": 49.1193, "longitude": 6.1757, "population": 116000, "categorie": "petite", "superficie_km2": 57433 }, "geometry": { "type": "Point", "coordinates": [ 6.1757, 49.1193 ] } }
]
}
